[{"OBJECT_NAME":"STARLINK-32873","OBJECT_ID":"2025-022D","EPOCH":"2026-03-09T09:50:43.859040","MEAN_MOTION":15.30199058,"ECCENTRICITY":0.00013557,"INCLINATION":53.1591,"RA_OF_ASC_NODE":131.1802,"ARG_OF_PERICENTER":93.2123,"MEAN_ANOMALY":266.9033,"EPHEMERIS_TYPE":0,"CLASSIFICATION_TYPE":"U","NORAD_CAT_ID":62857,"ELEMENT_SET_NO":999,"REV_AT_EPOCH":6185,"BSTAR":0.00036901474,"MEAN_MOTION_DOT":0.00010585,"MEAN_MOTION_DDOT":0},{"OBJECT_NAME":"OBJECT F","OBJECT_ID":"2021-022F","EPOCH":"2026-03-09T23:37:37.165152","MEAN_MOTION":15.31317672,"ECCENTRICITY":0.00120882,"INCLINATION":97.3982,"RA_OF_ASC_NODE":329.8375,"ARG_OF_PERICENTER":85.9268,"MEAN_ANOMALY":274.3355,"EPHEMERIS_TYPE":0,"CLASSIFICATION_TYPE":"U","NORAD_CAT_ID":47937,"ELEMENT_SET_NO":999,"REV_AT_EPOCH":27452,"BSTAR":0.00038690553,"MEAN_MOTION_DOT":0.00011656,"MEAN_MOTION_DDOT":0}]
